OBJECT_NAME,OBJECT_ID,EPOCH,MEAN_MOTION,ECCENTRICITY,INCLINATION,RA_OF_ASC_NODE,ARG_OF_PERICENTER,MEAN_ANOMALY,EPHEMERIS_TYPE,CLASSIFICATION_TYPE,NORAD_CAT_ID,ELEMENT_SET_NO,REV_AT_EPOCH,BSTAR,MEAN_MOTION_DOT,MEAN_MOTION_DDOT
GSAT-18,2016-060A,2026-06-11T11:45:51.765408,1.00270878,.00055536,0.0480,110.1950,321.3863,78.7073,0,U,41793,999,3547,0,-.6E-6,0
SKY MUSTER 2 (NBN1B),2016-060B,2026-06-11T13:56:03.712128,1.00270283,.00013859,0.0184,326.8994,111.9489,174.9004,0,U,41794,999,3546,0,-.228E-5,0
HIMAWARI-9,2016-064A,2026-06-11T13:54:48.831840,1.00271138,.00008078,0.0494,143.3345,349.2512,116.8210,0,U,41836,999,3515,0,-.258E-5,0
SHIJIAN-17 (SJ-17),2016-065A,2026-06-10T07:36:58.985568,0.99853566,.0001837,5.7345,72.6861,26.2514,160.1030,0,U,41838,999,3513,0,.38E-6,0
GOES 16,2016-071A,2026-06-11T12:44:48.532992,1.00270233,.00002801,0.3256,85.5640,303.7600,317.0743,0,U,41866,999,3504,0,-.74E-6,0
TIANLIAN 1-04,2016-072A,2026-06-11T12:39:38.805408,1.00270368,.00420519,0.8539,82.9498,89.7257,93.9118,0,U,41869,999,3524,0,.47E-6,0
WGS F8 (USA 272),2016-075A,2026-06-10T19:31:14.551104,1.00269780,.00002155,0.0052,354.0386,337.6670,10.0750,0,U,41879,999,3475,0,-.185E-5,0
FENGYUN 4A,2016-077A,2026-06-11T15:32:37.786848,1.00271870,.00085162,2.3073,80.3541,151.7691,24.8103,0,U,41882,999,3487,0,-.341E-5,0
ECHOSTAR 19,2016-079A,2026-06-11T12:47:03.317856,1.00270624,.000123,0.0183,2.2153,74.8390,277.4959,0,U,41893,999,3464,0,-.122E-5,0
JCSAT-110A (JCSAT-15),2016-082A,2026-06-10T19:07:03.044064,1.00272705,.00005138,0.0175,336.1538,148.6067,171.2267,0,U,41903,999,3469,0,-.333E-5,0
STAR ONE D1,2016-082B,2026-06-11T12:50:47.958720,1.00272261,.00022868,0.0124,45.1764,50.6276,272.7783,0,U,41904,999,3471,0,-.194E-5,0
TJS-2,2017-001A,2026-06-11T15:40:13.120896,1.00272703,.00005393,0.8184,85.3996,37.1358,79.0719,0,U,41911,999,3466,0,.1E-6,0
SBIRS GEO-4 (USA 273),2017-004A,2026-06-11T13:20:43.533024,1.00271730,.00020023,2.2316,43.1145,32.3615,45.5095,0,U,41937,999,3454,0,.139E-5,0
HISPASAT 36W-1,2017-006A,2026-06-11T07:56:28.782816,1.00272050,.00011069,0.0091,274.5181,168.8086,259.4869,0,U,41942,999,3418,0,-.227E-5,0
TELKOM 3S,2017-007A,2026-06-11T13:48:21.087648,1.00266065,.00020289,0.0200,2.9485,84.9667,137.0704,0,U,41944,999,3408,0,0,0
INTELSAT 32E (IS-32E),2017-007B,2026-06-11T06:10:21.113184,1.00268917,.00005341,0.0031,63.2625,226.5375,19.2132,0,U,41945,999,3416,0,-.252E-5,0
ECHOSTAR 23,2017-014A,2026-06-09T00:50:20.785056,1.00276522,.00014908,0.0199,341.1115,88.1607,90.8350,0,U,42070,999,3384,0,0,0
WGS F9 (USA 275),2017-016A,2026-06-11T06:20:40.456032,1.00270955,.00000565,0.0098,295.5794,332.8343,74.3696,0,U,42075,999,3383,0,-.79E-6,0
SES-10,2017-017A,2026-06-10T06:07:42.491424,1.00268899,.0002765,0.0225,36.2587,50.3805,197.0045,0,U,42432,999,3368,0,-.255E-5,0
CHINASAT 16 (SJ-13),2017-018A,2026-06-11T15:49:20.915904,1.00270145,.00039175,0.0977,91.3751,138.4853,18.0313,0,U,42662,999,3369,0,-.335E-5,0
KOREASAT 7,2017-023A,2026-06-11T13:47:36.159648,1.00270087,.00005403,0.0215,3.1651,72.6470,146.8881,0,U,42691,999,3331,0,-.345E-5,0
SGDC,2017-023B,2026-06-11T11:40:13.590624,1.00270538,.00026514,0.0374,74.2300,16.6467,269.1651,0,U,42692,999,3334,0,-.233E-5,0
GSAT-9,2017-024A,2026-06-11T15:28:16.264416,1.00271217,.00025381,0.0121,84.4700,357.8270,147.1182,0,U,42695,999,3324,0,-.27E-5,0
INMARSAT 5-F4,2017-025A,2026-06-09T03:20:25.525248,1.00273429,.00000655,0.0177,351.8920,193.2614,178.9583,0,U,42698,999,3319,0,.92E-6,0
SES-15,2017-026A,2026-06-08T12:46:06.263616,1.00270105,.00005164,0.0197,332.0701,88.0806,259.1449,0,U,42709,999,734,0,.76E-6,0
QZS-2 (MICHIBIKI-2),2017-028A,2026-06-09T12:56:43.810944,1.00285994,.07605811,39.4388,243.2674,269.1776,81.0235,0,U,42738,999,754,0,-.147E-5,0
VIASAT-2,2017-029A,2026-06-09T02:44:22.598880,1.00271449,.00001717,0.0187,291.3466,135.2981,162.0599,0,U,42740,999,3312,0,-.249E-5,0
EUTELSAT 172B,2017-029B,2026-06-11T12:55:38.681760,1.00272171,.0000167,0.0431,149.1731,84.0930,32.5399,0,U,42741,999,3368,0,.11E-6,0
GSAT-19,2017-031A,2026-06-09T11:51:12.298176,1.00271642,.00068744,0.1124,90.5949,350.9443,41.9894,0,U,42747,999,3307,0,.142E-5,0
ECHOSTAR 21,2017-032A,2026-06-11T13:17:36.331872,1.00271646,.00021244,1.7713,355.3092,92.0108,22.2425,0,U,42749,999,3304,0,.8E-6,0
BULGARIASAT-1,2017-038A,2026-06-09T01:22:06.159072,1.00269313,.00034291,0.0199,281.2746,171.9526,186.6324,0,U,42801,999,3276,0,.27E-6,0
HELLAS-SAT 3,2017-040A,2026-06-08T23:50:02.722848,1.00273758,.00046263,0.0579,55.5659,354.8875,243.4447,0,U,42814,999,3272,0,.169E-5,0
