GSAT-18                 
1 41793U 16060A   26162.49018247 -.00000060  00000+0  00000+0 0  9994
2 41793   0.0480 110.1950 0005553 321.3863  78.7073  1.00270878 35473
SKY MUSTER 2 (NBN1B)    
1 41794U 16060B   26162.58059852 -.00000228  00000+0  00000+0 0  9998
2 41794   0.0184 326.8994 0001385 111.9489 174.9004  1.00270283 35467
HIMAWARI-9              
1 41836U 16064A   26162.57973185 -.00000258  00000+0  00000+0 0  9995
2 41836   0.0494 143.3345 0000807 349.2512 116.8210  1.00271138 35151
SHIJIAN-17 (SJ-17)      
1 41838U 16065A   26161.31734937  .00000038  00000+0  00000+0 0  9994
2 41838   5.7345  72.6861 0001837  26.2514 160.1030  0.99853566 35133
GOES 16                 
1 41866U 16071A   26162.53111728 -.00000074  00000+0  00000+0 0  9995
2 41866   0.3256  85.5640 0000280 303.7600 317.0743  1.00270233 35045
TIANLIAN 1-04           
1 41869U 16072A   26162.52753247  .00000047  00000+0  00000+0 0  9995
2 41869   0.8539  82.9498 0042051  89.7257  93.9118  1.00270368 35247
WGS F8 (USA 272)        
1 41879U 16075A   26161.81336286 -.00000185  00000+0  00000+0 0  9994
2 41879   0.0052 354.0386 0000215 337.6670  10.0750  1.00269780 34752
FENGYUN 4A              
1 41882U 16077A   26162.64765957 -.00000341  00000+0  00000+0 0  9997
2 41882   2.3073  80.3541 0008516 151.7691  24.8103  1.00271870 34877
ECHOSTAR 19             
1 41893U 16079A   26162.53267729 -.00000122  00000+0  00000+0 0  9990
2 41893   0.0183   2.2153 0001230  74.8390 277.4959  1.00270624 34641
JCSAT-110A (JCSAT-15)   
1 41903U 16082A   26161.79656301 -.00000333  00000+0  00000+0 0  9995
2 41903   0.0175 336.1538 0000513 148.6067 171.2267  1.00272705 34694
STAR ONE D1             
1 41904U 16082B   26162.53527730 -.00000194  00000+0  00000+0 0  9997
2 41904   0.0124  45.1764 0002286  50.6276 272.7783  1.00272261 34710
TJS-2                   
1 41911U 17001A   26162.65292964  .00000010  00000+0  00000+0 0  9994
2 41911   0.8184  85.3996 0000539  37.1358  79.0719  1.00272703 34667
SBIRS GEO-4 (USA 273)   
1 41937U 17004A   26162.55605941  .00000139  00000+0  00000+0 0  9999
2 41937   2.2316  43.1145 0002002  32.3615  45.5095  1.00271730 34547
HISPASAT 36W-1          
1 41942U 17006A   26162.33088869 -.00000227  00000+0  00000+0 0  9996
2 41942   0.0091 274.5181 0001106 168.8086 259.4869  1.00272050 34181
TELKOM 3S               
1 41944U 17007A   26162.57524407  .00000000  00000+0  00000+0 0  9996
2 41944   0.0200   2.9485 0002028  84.9667 137.0704  1.00266065 34089
INTELSAT 32E (IS-32E)   
1 41945U 17007B   26162.25718881 -.00000252  00000+0  00000+0 0  9993
2 41945   0.0031  63.2625 0000534 226.5375  19.2132  1.00268917 34161
ECHOSTAR 23             
1 42070U 17014A   26160.03496279  .00000000  00000+0  00000+0 0  9999
2 42070   0.0199 341.1115 0001490  88.1607  90.8350  1.00276522 33842
WGS F9 (USA 275)        
1 42075U 17016A   26162.26435713 -.00000079  00000+0  00000+0 0  9996
2 42075   0.0098 295.5794 0000056 332.8343  74.3696  1.00270955 33836
SES-10                  
1 42432U 17017A   26161.25535291 -.00000255  00000+0  00000+0 0  9990
2 42432   0.0225  36.2587 0002765  50.3805 197.0045  1.00268899 33687
CHINASAT 16 (SJ-13)     
1 42662U 17018A   26162.65926986 -.00000335  00000+0  00000+0 0  9995
2 42662   0.0977  91.3751 0003917 138.4853  18.0313  1.00270145 33690
KOREASAT 7              
1 42691U 17023A   26162.57472407 -.00000345  00000+0  00000+0 0  9999
2 42691   0.0215   3.1651 0000540  72.6470 146.8881  1.00270087 33314
SGDC                    
1 42692U 17023B   26162.48626841 -.00000233  00000+0  00000+0 0  9999
2 42692   0.0374  74.2300 0002651  16.6467 269.1651  1.00270538 33348
GSAT-9                  
1 42695U 17024A   26162.64463269 -.00000270  00000+0  00000+0 0  9995
2 42695   0.0121  84.4700 0002538 357.8270 147.1182  1.00271217 33242
INMARSAT 5-F4           
1 42698U 17025A   26160.13918432  .00000092  00000+0  00000+0 0  9999
2 42698   0.0177 351.8920 0000065 193.2614 178.9583  1.00273429 33196
SES-15                  
1 42709U 17026A   26159.53201694  .00000076  00000+0  00000+0 0  9992
2 42709   0.0197 332.0701 0000516  88.0806 259.1449  1.00270105  7343
QZS-2 (MICHIBIKI-2)     
1 42738U 17028A   26160.53939596 -.00000147  00000+0  00000+0 0  9997
2 42738  39.4388 243.2674 0760581 269.1776  81.0235  1.00285994  7547
VIASAT-2                
1 42740U 17029A   26160.11415045 -.00000249  00000+0  00000+0 0  9996
2 42740   0.0187 291.3466 0000171 135.2981 162.0599  1.00271449 33123
EUTELSAT 172B           
1 42741U 17029B   26162.53864215  .00000011  00000+0  00000+0 0  9998
2 42741   0.0431 149.1731 0000167  84.0930  32.5399  1.00272171 33684
GSAT-19                 
1 42747U 17031A   26160.49389234  .00000142  00000+0  00000+0 0  9998
2 42747   0.1124  90.5949 0006874 350.9443  41.9894  1.00271642 33074
ECHOSTAR 21             
1 42749U 17032A   26162.55389273  .00000080  00000+0  00000+0 0  9994
2 42749   1.7713 355.3092 0002124  92.0108  22.2425  1.00271646 33047
BULGARIASAT-1           
1 42801U 17038A   26160.05701573  .00000027  00000+0  00000+0 0  9994
2 42801   0.0199 281.2746 0003429 171.9526 186.6324  1.00269313 32768
HELLAS-SAT 3            
1 42814U 17040A   26159.99308707  .00000169  00000+0  00000+0 0  9991
2 42814   0.0579  55.5659 0004626 354.8875 243.4447  1.00273758 32720
